0 COSMOS 970 DEB
1 18998U 77121BS  13282.83796446  .00000269  00000-0  34596-3 0  2312
2 18998 065.8288 350.4084 0140030 239.2974 239.2784 13.74133944303394
0 COSMOS 970 DEB
1 18998U 77121BS  13285.57938882  .00000254  00000-0  33080-3 0  2320
2 18998 065.8321 343.6517 0140381 237.3729 121.3640 13.74135165303763
0 COSMOS 970 DEB
1 18998U 77121BS  13290.52845456  .00000476  00000-0  47063-3 0  2349
2 18998 065.8315 331.4300 0140083 235.6345 123.1864 13.74140443304444
0 COSMOS 970 DEB
1 18998U 77121BS  13290.55959622  .00000319  00000-0  39523-3 0  2330
2 18998 065.8305 331.3486 0139718 235.8354 277.0233 13.74141034304459
0 COSMOS 970 DEB
1 18998U 77121BS  13293.54411016  .00000339  00000-0  41576-3 0  2346
2 18998 065.8297 323.9813 0139514 234.4432 281.0706 13.74143144304865
0 COSMOS 970 DEB
1 18998U 77121BS  13296.06611891  .00000325  00000-0  40141-3 0  2352
2 18998 065.8288 317.7560 0139446 233.3072 157.1342 13.74145136305208
